STARLINK-30069          
1 56834U 23079M   26067.48212902 -.00002416  00000+0 -80472-4 0  9995
2 56834  42.9986 110.4464 0000469 272.6695  87.4103 15.26726881152740
STARLINK-31203          
1 58869U 24019S   26068.55594715  .00000398  00000+0  23978-4 0  9997
2 58869  43.0003 246.0511 0001460 234.9136 125.1579 15.27575211119104
